CCSDS_OMM_VERS = 2.0
CREATION_DATE  = 
ORIGINATOR     = 

OBJECT_NAME    = SL-14 R/B
OBJECT_ID      = 1986-046B
CENTER_NAME    = EARTH
REF_FRAME      = TEME
TIME_SYSTEM    = UTC
MEAN_ELEMENT_THEORY = SGP/SGP4

EPOCH          = 2026-04-01T23:27:19.342944
MEAN_MOTION    = 14.85613894
ECCENTRICITY   = .00238945
INCLINATION    = 82.4811
RA_OF_ASC_NODE = 58.1731
ARG_OF_PERICENTER = 147.7258
MEAN_ANOMALY   = 212.5426

EPHEMERIS_TYPE = 0
CLASSIFICATION_TYPE = U
NORAD_CAT_ID   = 16792
ELEMENT_SET_NO = 999
REV_AT_EPOCH   = 12986
BSTAR          = .68226438E-4
MEAN_MOTION_DOT = .618E-5
MEAN_MOTION_DDOT = 0

CCSDS_OMM_VERS = 2.0
CREATION_DATE  = 
ORIGINATOR     = 

OBJECT_NAME    = SL-14 R/B
OBJECT_ID      = 1986-055B
CENTER_NAME    = EARTH
REF_FRAME      = TEME
TIME_SYSTEM    = UTC
MEAN_ELEMENT_THEORY = SGP/SGP4

EPOCH          = 2026-04-01T12:27:46.833120
MEAN_MOTION    = 14.85663347
ECCENTRICITY   = .00173575
INCLINATION    = 82.5169
RA_OF_ASC_NODE = 105.2098
ARG_OF_PERICENTER = 255.4998
MEAN_ANOMALY   = 265.8874

EPHEMERIS_TYPE = 0
CLASSIFICATION_TYPE = U
NORAD_CAT_ID   = 16882
ELEMENT_SET_NO = 999
REV_AT_EPOCH   = 12275
BSTAR          = .60119019E-4
MEAN_MOTION_DOT = .546E-5
MEAN_MOTION_DDOT = 0

CCSDS_OMM_VERS = 2.0
CREATION_DATE  = 
ORIGINATOR     = 

OBJECT_NAME    = AJISAI (EGS)
OBJECT_ID      = 1986-061A
CENTER_NAME    = EARTH
REF_FRAME      = TEME
TIME_SYSTEM    = UTC
MEAN_ELEMENT_THEORY = SGP/SGP4

EPOCH          = 2026-04-01T22:24:07.342848
MEAN_MOTION    = 12.44515632
ECCENTRICITY   = .00113532
INCLINATION    = 50.0119
RA_OF_ASC_NODE = 21.8727
ARG_OF_PERICENTER = 346.8400
MEAN_ANOMALY   = 123.8282

EPHEMERIS_TYPE = 0
CLASSIFICATION_TYPE = U
NORAD_CAT_ID   = 16908
ELEMENT_SET_NO = 999
REV_AT_EPOCH   = 47089
BSTAR          = -.26921566E-4
MEAN_MOTION_DOT = -.101E-5
MEAN_MOTION_DDOT = 0

CCSDS_OMM_VERS = 2.0
CREATION_DATE  = 
ORIGINATOR     = 

OBJECT_NAME    = SL-14 R/B
OBJECT_ID      = 1987-024B
CENTER_NAME    = EARTH
REF_FRAME      = TEME
TIME_SYSTEM    = UTC
MEAN_ELEMENT_THEORY = SGP/SGP4

EPOCH          = 2026-04-01T22:26:14.578080
MEAN_MOTION    = 14.86155115
ECCENTRICITY   = .00181825
INCLINATION    = 82.5259
RA_OF_ASC_NODE = 70.9094
ARG_OF_PERICENTER = 178.8159
MEAN_ANOMALY   = 181.3104

EPHEMERIS_TYPE = 0
CLASSIFICATION_TYPE = U
NORAD_CAT_ID   = 17567
ELEMENT_SET_NO = 999
REV_AT_EPOCH   = 9158
BSTAR          = .64833623E-4
MEAN_MOTION_DOT = .594E-5
MEAN_MOTION_DDOT = 0

CCSDS_OMM_VERS = 2.0
CREATION_DATE  = 
ORIGINATOR     = 

OBJECT_NAME    = COSMOS 1833
OBJECT_ID      = 1987-027A
CENTER_NAME    = EARTH
REF_FRAME      = TEME
TIME_SYSTEM    = UTC
MEAN_ELEMENT_THEORY = SGP/SGP4

EPOCH          = 2026-04-01T22:30:23.186304
MEAN_MOTION    = 14.13045447
ECCENTRICITY   = .00230716
INCLINATION    = 70.9166
RA_OF_ASC_NODE = 277.1532
ARG_OF_PERICENTER = 180.0089
MEAN_ANOMALY   = 180.1036

EPHEMERIS_TYPE = 0
CLASSIFICATION_TYPE = U
NORAD_CAT_ID   = 17589
ELEMENT_SET_NO = 999
REV_AT_EPOCH   = 1360
BSTAR          = -.13807688E-3
MEAN_MOTION_DOT = -.307E-5
MEAN_MOTION_DDOT = 0

CCSDS_OMM_VERS = 2.0
CREATION_DATE  = 
ORIGINATOR     = 

OBJECT_NAME    = SL-16 R/B
OBJECT_ID      = 1987-027B
CENTER_NAME    = EARTH
REF_FRAME      = TEME
TIME_SYSTEM    = UTC
MEAN_ELEMENT_THEORY = SGP/SGP4

EPOCH          = 2026-04-01T18:33:41.842944
MEAN_MOTION    = 14.17167041
ECCENTRICITY   = .00028865
INCLINATION    = 71.0020
RA_OF_ASC_NODE = 227.8479
ARG_OF_PERICENTER = 85.0271
MEAN_ANOMALY   = 275.1182

EPHEMERIS_TYPE = 0
CLASSIFICATION_TYPE = U
NORAD_CAT_ID   = 17590
ELEMENT_SET_NO = 999
REV_AT_EPOCH   = 1861
BSTAR          = .14285116E-3
MEAN_MOTION_DOT = .24E-5
MEAN_MOTION_DDOT = 0

CCSDS_OMM_VERS = 2.0
CREATION_DATE  = 
ORIGINATOR     = 

OBJECT_NAME    = SL-14 R/B
OBJECT_ID      = 1987-038B
CENTER_NAME    = EARTH
REF_FRAME      = TEME
TIME_SYSTEM    = UTC
MEAN_ELEMENT_THEORY = SGP/SGP4

EPOCH          = 2026-04-01T22:36:10.542816
MEAN_MOTION    = 14.85391224
ECCENTRICITY   = .00207627
INCLINATION    = 82.4977
RA_OF_ASC_NODE = 274.8963
ARG_OF_PERICENTER = 88.0426
MEAN_ANOMALY   = 272.3167

EPHEMERIS_TYPE = 0
CLASSIFICATION_TYPE = U
NORAD_CAT_ID   = 17912
ELEMENT_SET_NO = 999
REV_AT_EPOCH   = 8268
BSTAR          = .64382793E-4
MEAN_MOTION_DOT = .581E-5
MEAN_MOTION_DDOT = 0

CCSDS_OMM_VERS = 2.0
CREATION_DATE  = 
ORIGINATOR     = 

OBJECT_NAME    = COSMOS 1844
OBJECT_ID      = 1987-041A
CENTER_NAME    = EARTH
REF_FRAME      = TEME
TIME_SYSTEM    = UTC
MEAN_ELEMENT_THEORY = SGP/SGP4

EPOCH          = 2026-04-01T22:45:22.000320
MEAN_MOTION    = 14.14560061
ECCENTRICITY   = .00313316
INCLINATION    = 70.9016
RA_OF_ASC_NODE = 345.1196
ARG_OF_PERICENTER = 343.7745
MEAN_ANOMALY   = 16.2370

EPHEMERIS_TYPE = 0
CLASSIFICATION_TYPE = U
NORAD_CAT_ID   = 17973
ELEMENT_SET_NO = 999
REV_AT_EPOCH   = 687
BSTAR          = .22677092E-3
MEAN_MOTION_DOT = .389E-5
MEAN_MOTION_DDOT = 0

CCSDS_OMM_VERS = 2.0
CREATION_DATE  = 
ORIGINATOR     = 

OBJECT_NAME    = SL-14 R/B
OBJECT_ID      = 1987-055B
CENTER_NAME    = EARTH
REF_FRAME      = TEME
TIME_SYSTEM    = UTC
MEAN_ELEMENT_THEORY = SGP/SGP4

EPOCH          = 2026-04-01T21:56:56.376960
MEAN_MOTION    = 14.85652228
ECCENTRICITY   = .00193044
INCLINATION    = 82.5000
RA_OF_ASC_NODE = 327.1449
ARG_OF_PERICENTER = 299.0776
MEAN_ANOMALY   = 60.8507

EPHEMERIS_TYPE = 0
CLASSIFICATION_TYPE = U
NORAD_CAT_ID   = 18153
ELEMENT_SET_NO = 999
REV_AT_EPOCH   = 7338
BSTAR          = .53343592E-4
MEAN_MOTION_DOT = .487E-5
MEAN_MOTION_DDOT = 0

CCSDS_OMM_VERS = 2.0
CREATION_DATE  = 
ORIGINATOR     = 

OBJECT_NAME    = COSMOS 1867
OBJECT_ID      = 1987-060A
CENTER_NAME    = EARTH
REF_FRAME      = TEME
TIME_SYSTEM    = UTC
MEAN_ELEMENT_THEORY = SGP/SGP4

EPOCH          = 2026-04-01T16:55:23.944800
MEAN_MOTION    = 14.31506662
ECCENTRICITY   = .00148949
INCLINATION    = 65.0098
RA_OF_ASC_NODE = 242.2472
ARG_OF_PERICENTER = 279.9787
MEAN_ANOMALY   = 79.9616

EPHEMERIS_TYPE = 0
CLASSIFICATION_TYPE = U
NORAD_CAT_ID   = 18187
ELEMENT_SET_NO = 999
REV_AT_EPOCH   = 2323
BSTAR          = .30474195E-4
MEAN_MOTION_DOT = -.19E-6
MEAN_MOTION_DDOT = 0

CCSDS_OMM_VERS = 2.0
CREATION_DATE  = 
ORIGINATOR     = 

OBJECT_NAME    = SL-14 R/B
OBJECT_ID      = 1988-001B
CENTER_NAME    = EARTH
REF_FRAME      = TEME
TIME_SYSTEM    = UTC
MEAN_ELEMENT_THEORY = SGP/SGP4

EPOCH          = 2026-04-01T07:19:38.517024
MEAN_MOTION    = 14.85552398
ECCENTRICITY   = .00186273
INCLINATION    = 82.5158
RA_OF_ASC_NODE = 174.0964
ARG_OF_PERICENTER = 159.2606
MEAN_ANOMALY   = 200.9371

EPHEMERIS_TYPE = 0
CLASSIFICATION_TYPE = U
NORAD_CAT_ID   = 18749
ELEMENT_SET_NO = 999
REV_AT_EPOCH   = 4538
BSTAR          = .57963947E-4
MEAN_MOTION_DOT = .527E-5
MEAN_MOTION_DDOT = 0

CCSDS_OMM_VERS = 2.0
CREATION_DATE  = 
ORIGINATOR     = 

OBJECT_NAME    = COSMOS 1933
OBJECT_ID      = 1988-020A
CENTER_NAME    = EARTH
REF_FRAME      = TEME
TIME_SYSTEM    = UTC
MEAN_ELEMENT_THEORY = SGP/SGP4

EPOCH          = 2026-04-01T19:03:34.300800
MEAN_MOTION    = 15.18209210
ECCENTRICITY   = .00055024
INCLINATION    = 82.5128
RA_OF_ASC_NODE = 228.0466
ARG_OF_PERICENTER = 114.1422
MEAN_ANOMALY   = 246.0388

EPHEMERIS_TYPE = 0
CLASSIFICATION_TYPE = U
NORAD_CAT_ID   = 18958
ELEMENT_SET_NO = 999
REV_AT_EPOCH   = 5373
BSTAR          = .3009576E-3
MEAN_MOTION_DOT = .6186E-4
MEAN_MOTION_DDOT = 0

