SL-14 R/B               
1 16792U 86046B   26091.97730721  .00000618  00000+0  68226-4 0  9995
2 16792  82.4811  58.1731 0023894 147.7258 212.5426 14.85613894129863
SL-14 R/B               
1 16882U 86055B   26091.51929205  .00000546  00000+0  60119-4 0  9995
2 16882  82.5169 105.2098 0017357 255.4998 265.8874 14.85663347122752
AJISAI (EGS)            
1 16908U 86061A   26091.93341832 -.00000101  00000+0 -26922-4 0  9994
2 16908  50.0119  21.8727 0011353 346.8400 123.8282 12.44515632470894
SL-14 R/B               
1 17567U 87024B   26091.93489095  .00000594  00000+0  64834-4 0  9998
2 17567  82.5259  70.9094 0018182 178.8159 181.3104 14.86155115 91585
COSMOS 1833             
1 17589U 87027A   26091.93776836 -.00000307  00000+0 -13808-3 0  9995
2 17589  70.9166 277.1532 0023071 180.0089 180.1036 14.13045447 13609
SL-16 R/B               
1 17590U 87027B   26091.77340096  .00000240  00000+0  14285-3 0  9998
2 17590  71.0020 227.8479 0002886  85.0271 275.1182 14.17167041 18614
SL-14 R/B               
1 17912U 87038B   26091.94178869  .00000581  00000+0  64383-4 0  9997
2 17912  82.4977 274.8963 0020762  88.0426 272.3167 14.85391224 82684
COSMOS 1844             
1 17973U 87041A   26091.94817130  .00000389  00000+0  22677-3 0  9994
2 17973  70.9016 345.1196 0031331 343.7745  16.2370 14.14560061  6873
SL-14 R/B               
1 18153U 87055B   26091.91454140  .00000487  00000+0  53344-4 0  9990
2 18153  82.5000 327.1449 0019304 299.0776  60.8507 14.85652228 73382
COSMOS 1867             
1 18187U 87060A   26091.70513825 -.00000019  00000+0  30474-4 0  9997
2 18187  65.0098 242.2472 0014894 279.9787  79.9616 14.31506662 23235
SL-14 R/B               
1 18749U 88001B   26091.30530691  .00000527  00000+0  57964-4 0  9999
2 18749  82.5158 174.0964 0018627 159.2606 200.9371 14.85552398 45386
COSMOS 1933             
1 18958U 88020A   26091.79414700  .00006186  00000+0  30096-3 0  9990
2 18958  82.5128 228.0466 0005502 114.1422 246.0388 15.18209210 53732
